COSMOS 1892             
1 18421U 87088A   20333.09742916  .00001245  00000-0  60696-4 0  9999
2 18421  82.4988 111.5760 0014152 212.9978 147.0373 15.17328297809589
SL-14 R/B               
1 18749U 88001B   20332.74665683  .00000126  00000-0  12367-4 0  9993
2 18749  82.5155 204.6123 0020086 117.9346 307.0179 14.83235235756070
COSMOS 1933             
1 18958U 88020A   20333.48655918  .00000434  00000-0  29512-4 0  9990
2 18958  82.5279 327.1851 0010402 319.5811  40.4641 15.03804637780908
SL-3 R/B                
1 19046U 88032B   20333.46394946  .00001275  00000-0  98268-4 0  9999
2 19046  97.3942 347.1919 0037258   8.6780 351.5082 15.02791538761889
SL-16 R/B               
1 19120U 88039B   20332.91807480  .00000210  00000-0  12271-3 0  9997
2 19120  71.0138 183.1170 0020078  52.8625 307.4330 14.19210020684841
COSMOS 1953             
1 19210U 88050A   20333.49214983  .00000378  00000-0  23867-4 0  9993
2 19210  82.5174 250.5782 0011205 279.3935  80.6025 15.06087839767488
SL-8 R/B                
1 19257U 88053B   20333.00711752  .00000010  00000-0  12077-4 0  9994
2 19257  74.0506  60.2520 0020659 355.4533 177.1550 14.37490777699787
COSMOS 1975             
1 19573U 88093A   20332.92170012  .00000940  00000-0  64165-4 0  9994
2 19573  82.5208 205.8328 0013597 332.5965  27.4543 15.04986024728098
SL-14 R/B               
1 19574U 88093B   20333.47201333  .00000117  00000-0  11347-4 0  9997
2 19574  82.5344  46.6757 0020076 282.0038  88.1436 14.83346153736270
SL-16 R/B               
1 19650U 88102B   20333.47003794 -.00000286  00000-0 -12136-3 0  9999
2 19650  71.0002 245.0136 0012139  59.7809 300.4515 14.15793226654371
INTERCOSMOS 24          
1 20261U 89080A   20333.42043826  .00000277  00000-0  73578-4 0  9996
2 20261  82.6042 274.1559 1203414  69.4980 303.0978 12.56148706424177
SL-14 R/B               
1 20262U 89080C   20333.07565258  .00000087  00000-0  26195-4 0  9998
2 20262  82.5929 329.1203 1235885 264.0707  81.8542 12.48951570418987
DELTA 2 R/B(1)          
1 20303U 89085B   20332.72439858  .00006814  00000-0  21529-3 0  9995
2 20303  35.6370  64.3842 0093334 189.3039 170.5959 15.27991031693581
DELTA 1 R/B             
1 20323U 89089B   20333.09053198  .00000074  00000-0  28059-4 0  9999
2 20323  97.1133  92.9629 0073153  76.5577 284.3759 14.48370729637086
ARIANE 40 R/B           
1 20443U 90005H   20333.43493434  .00000042  00000-0  28417-4 0  9994
2 20443  98.5572  34.8259 0009957 209.1639 150.8993 14.38106680615949
DELTA 2 R/B(1)          
1 20453U 90008B   20333.46538630  .00003825  00000-0  21078-3 0  9996
2 20453  35.6273   9.0003 0280092 234.4068 123.0247 14.85882609635602
COSMOS 2058             
1 20465U 90010A   20332.89763077  .00000570  00000-0  45787-4 0  9991
2 20465  82.4877 116.0721 0015702  15.6717 344.4989 14.98084468652797
SL-14 R/B               
1 20466U 90010B   20332.93730761  .00000101  00000-0  98612-5 0  9997
2 20466  82.5028 273.7641 0021066 156.4845 203.7337 14.81400555663994
SL-14 R/B               
1 20511U 90018B   20332.73056146  .00000114  00000-0  11952-4 0  9997
2 20511  82.5249 221.0744 0016232 305.6488 106.6721 14.80056251637268
HST                     
1 20580U 90037B   20332.68777196  .00000933  00000-0  45721-4 0  9993
2 20580  28.4708 319.9558 0002862  53.7410 109.2505 15.09489292480748
SL-16 R/B               
1 20625U 90046B   20333.48077843  .00000140  00000-0  97631-4 0  9991
2 20625  70.9998  23.9117 0014650 344.1721  15.8941 14.14657198576068
COSMOS 2084             
1 20663U 90055A   20333.44425381  .00000285  00000-0  45504-4 0  9995
2 20663  62.7951 340.6291 0039914 327.2088  32.6529 14.92146761647836
SL-6 R/B(2)             
1 20666U 90055D   20333.13429981  .00000284  00000-0  44583-4 0  9999
2 20666  62.7859 257.6909 0069681  10.1366 350.1113 14.92396031649195
SL-8 R/B                
1 20775U 90078B   20333.07742938  .00002153  00000-0  10171-3 0  9990
2 20775  82.9266  91.6558 0572161  47.6993 317.1243 14.34988821529195
SL-8 R/B                
1 21088U 91006B   20333.51134601  .00000138  00000-0  12350-3 0  9993
2 21088  82.9409 163.2588 0023277  34.4514  21.7723 13.77149061499067
OKEAN-3                 
1 21397U 91039A   20333.38570030  .00000440  00000-0  39742-4 0  9998
2 21397  82.5233  20.8689 0017277 346.0805  13.9936 14.92994559597784
COSMOS 2151             
1 21422U 91042A   20332.88108240  .00000345  00000-0  31321-4 0  9994
2 21422  82.4986 127.3564 0015271  51.1450 309.1130 14.92179449596333
SL-14 R/B               
1 21423U 91042B   20333.09922095  .00000108  00000-0  11200-4 0  9992
2 21423  82.4959 223.9509 0019136  83.6562 276.6829 14.79806213588902
ERS-1                   
1 21574U 91050A   20332.89046354  .00000054  00000-0  32594-4 0  9999
2 21574  98.6198 286.4667 0033235 159.2976 200.9565 14.37769392538606
ARIANE 40 R/B           
1 21610U 91050F   20333.14741270  .00000054  00000-0  30568-4 0  9997
2 21610  98.4493  40.6106 0004252 120.8141 296.8776 14.40923456541559
INTERCOSMOS 25          
1 21819U 91086A   20333.45574346  .00000875  00000-0  18070-3 0  9993
2 21819  82.5982  28.0996 1514445 282.5230  61.1054 12.05193947264052
SL-8 R/B                
1 21876U 92008B   20332.88117152  .00000059  00000-0  44473-4 0  9996
2 21876  82.9273 260.9347 0035962 116.4108 302.9922 13.75668840444348
SL-8 R/B                
1 21938U 92020B   20332.87603233  .00000126  00000-0  11595-3 0  9991
2 21938  82.9277 145.2520 0028042 277.9632 190.5727 13.75286983436131
COSMOS 2219             
1 22219U 92076A   20333.52216772 -.00000290  00000-0 -12847-3 0  9991
2 22219  71.0596  84.9744 0020776 264.5735  95.3017 14.13645298446323
SL-16 R/B               
1 22220U 92076B   20333.18749937  .00000014  00000-0  31081-4 0  9993
2 22220  71.0004 286.9091 0011961 163.3230 207.7289 14.16464124449198
COSMOS 2221             
1 22236U 92080A   20333.03955574  .00000359  00000-0  36350-4 0  9991
2 22236  82.5059 309.0690 0017755 134.8651 225.4012 14.87974618514647
SL-16 R/B               
1 22285U 92093B   20332.73644118  .00000146  00000-0  99751-4 0  9992
2 22285  71.0213  89.9629 0004531 338.6703  21.4230 14.15047902440712
COSMOS 2228             
1 22286U 92094A   20332.83324216  .00000365  00000-0  36772-4 0  9996
2 22286  82.5204 265.6915 0019531 258.0416 101.8612 14.88195336488740
SL-16 R/B               
1 22566U 93016B   20333.33776037 -.00000238  00000-0 -98151-4 0  9990
2 22566  71.0067 301.7390 0009919   2.5622 357.5550 14.14964804429525
COSMOS 2242             
1 22626U 93024A   20333.16312355  .00000336  00000-0  33873-4 0  9993
2 22626  82.5203 293.5753 0017323 256.6695 103.2591 14.88047198493501
SL-16 R/B               
1 22803U 93059B   20333.47977497 -.00000124  00000-0 -37966-4 0  9990
2 22803  70.9877 113.5941 0019590 266.7674  93.1208 14.16828867406791
ARIANE 40 R/B           
1 22830U 93061H   20332.86618378  .00000006  00000-0  19187-4 0  9997
2 22830  98.7447  23.4061 0010676 197.9020 162.1788 14.31460742418200
COSMOS 2278             
1 23087U 94023A   20333.46373185 -.00000195  00000-0 -77976-4 0  9993
2 23087  71.0533 244.8411 0006487  93.2477 266.9387 14.13810100372622
SL-16 R/B               
1 23088U 94023B   20333.51517640 -.00000372  00000-0 -16844-3 0  9999
2 23088  70.9970 156.7672 0004608 314.9829  45.0919 14.14684683373784
SL-16 R/B               
1 23343U 94074B   20332.74338392  .00000078  00000-0  18363-4 0  9998
2 23343  97.9781  24.1087 0006638 356.6515 141.9070 14.76848133402726
SL-16 R/B               
1 23405U 94077B   20332.75946781 -.00000242  00000-0 -99983-4 0  9990
2 23405  70.9839  87.0932 0004461 240.9184 119.1492 14.15227492343457
ERS-2                   
1 23560U 95021A   20333.45075778  .00002129  00000-0  93125-4 0  9995
2 23560  98.5527 149.5882 0003093 353.9470   6.1725 15.23458450367113
ARIANE 40+ R/B          
1 23561U 95021B   20332.92274917  .00000078  00000-0  40882-4 0  9996
2 23561  98.7049  14.4605 0007872 125.3965  48.0153 14.37994739342063
SL-16 R/B               
1 23705U 95058B   20333.08326458  .00000052  00000-0  51101-4 0  9990
2 23705  71.0221 265.6316 0012746 187.8574 172.2351 14.15137876295427
SL-16 R/B               
1 24298U 96051B   20333.17394210 -.00000163  00000-0 -61707-4 0  9991
2 24298  70.8405 285.3881 0013740 117.0270 243.2255 14.12486721249733
ORBVIEW 2 (SEASTAR)     
1 24883U 97037A   20332.86295411  .00000075  00000-0  43108-4 0  9999
2 24883  98.6260  85.4609 0002155  11.0467 349.0764 14.33581959232123
SL-16 R/B               
1 25400U 98043G   20333.40323939 -.00000006  00000-0  15783-4 0  9994
2 25400  98.6218 266.3941 0009244 212.2403 147.8212 14.25465298164609
SL-16 R/B               
1 25407U 98045B   20333.25118005 -.00000043  00000-0  22692-5 0  9991
2 25407  71.0112 273.3596 0005206  81.7007 278.4706 14.15828778154536
ISS (ZARYA)             
1 25544U 98067A   20333.78612116  .00004505  00000-0  89580-4 0  9991
2 25544  51.6467 254.0227 0001992  92.1612   4.0548 15.49095586257530
SL-8 R/B                
1 25723U 99022C   20333.08003381  .00066173  00000-0  30836-3 0  9991
2 25723  48.4086 181.0933 0001771 146.2851 213.8218 15.82609032203814
CZ-4B R/B               
1 25732U 99025C   20333.13653255  .00000009  00000-0  26507-4 0  9998
2 25732  98.9285   2.8770 0038324 103.7718 293.1813 14.17684272115155
OKEAN-O                 
1 25860U 99039A   20333.08478472  .00000124  00000-0  25314-4 0  9998
2 25860  98.2035 354.8472 0001827  84.3875 275.7543 14.76693280149751
SL-16 R/B               
1 25861U 99039B   20332.89752326  .00000104  00000-0  21740-4 0  9997
2 25861  98.2097 338.3013 0015530 357.9452  63.7229 14.78603892151777
DELTA 2 R/B             
1 25876U 99041E   20333.46414777 -.00000084  00000-0  27862-4 0  9994
2 25876  51.7651  22.8554 0531508 102.4661 263.6245 14.04483830 91703
